NORAD_CAT_ID,OBJECT_NAME,OBJECT_TYPE,EPOCH,MEAN_MOTION,ECCENTRICITY,INCLINATION,RA_OF_ASC_NODE,ARG_OF_PERICENTER,MEAN_ANOMALY,BSTAR,MEAN_MOTION_DOT,MEAN_MOTION_DDOT,TLE_LINE0,TLE_LINE1,TLE_LINE2,SEMIMAJOR_AXIS,PERIOD,APOGEE,PERIGEE,DECAYED
53790.0,STARLINK-4734,PAYLOAD,2023-04-11 04:15:28,15.08850701,0.0001321,53.217,8.2963,103.412,256.7019,0.00044256,6.764e-05,0.0,0 STARLINK-4734,1 53790U 22111T   23101.17741805  .00006764  00000-0  44256-3 0  9998,2 53790  53.2170   8.2963 0001321 103.4120 256.7019 15.08850701 33146,6917.848,95.437,540.627,538.799,0.0
53790.0,STARLINK-4734,PAYLOAD,2023-04-11 18:33:57,15.08833509,0.0001442,53.216,5.6192,98.3305,261.7851,4.4457e-05,4.2e-06,0.0,0 STARLINK-4734,1 53790U 22111T   23101.77358523  .00000420  00000-0  44457-4 0  9992,2 53790  53.2160   5.6192 0001442  98.3305 261.7851 15.08833509 32428,6917.9,95.438,540.763,538.768,0.0
53790.0,STARLINK-4734,PAYLOAD,2023-04-11 21:44:44,15.08827909,0.0001066,53.2165,5.0262,90.4483,269.6631,-9.6702e-05,-1.826e-05,0.0,0 STARLINK-4734,1 53790U 22111T   23101.90606732 -.00001826  00000-0 -96702-4 0  9998,2 53790  53.2165   5.0262 0001066  90.4483 269.6631 15.08827909 33259,6917.917,95.438,540.52,539.045,0.0
53790.0,STARLINK-4734,PAYLOAD,2023-04-12 02:30:53,15.08836006,0.0001181,53.216,4.1323,89.915,270.1978,7.8416e-05,9.6e-06,0.0,0 STARLINK-4734,1 53790U 22111T   23102.10478741  .00000960  00000-0  78416-4 0  9996,2 53790  53.2160   4.1323 0001181  89.9150 270.1978 15.08836006 33286,6917.893,95.438,540.575,538.941,0.0
53790.0,STARLINK-4734,PAYLOAD,2023-04-13 02:21:40,15.08861966,0.0001137,53.2154,359.6721,89.4203,270.6919,0.0010026,0.00015714,0.0,0 STARLINK-4734,1 53790U 22111T   23103.09838393  .00015714  00000-0  10026-2 0  9992,2 53790  53.2154 359.6721 0001137  89.4203 270.6919 15.08861966 33434,6917.813,95.436,540.465,538.892,0.0
53790.0,STARLINK-4734,PAYLOAD,2023-04-14 02:12:27,15.0885189,0.0001276,53.2159,355.211,83.3284,276.7853,0.00063354,9.812e-05,0.0,0 STARLINK-4734,1 53790U 22111T   23104.09198583  .00009812  00000-0  63354-3 0  9998,2 53790  53.2159 355.2110 0001276  83.3284 276.7853 15.08851890 32774,6917.844,95.437,540.592,538.826,0.0
53790.0,STARLINK-4734,PAYLOAD,2023-04-14 22:52:28,15.08846497,7.79e-05,53.2163,351.3465,72.2814,287.8263,0.0010503,0.0001647,0.0,0 STARLINK-4734,1 53790U 22111T   23104.95310624  .00016470  00000-0  10503-2 0  9990,2 53790  53.2163 351.3465 0000779  72.2814 287.8263 15.08846497 32902,6917.861,95.437,540.264,539.187,0.0
53790.0,STARLINK-4734,PAYLOAD,2023-04-15 03:38:37,15.08865668,0.0001065,53.216,350.4541,81.2669,278.8444,0.0016455,0.00026016,0.0,0 STARLINK-4734,1 53790U 22111T   23105.15182297  .00026016  00000-0  16455-2 0  9995,2 53790  53.2160 350.4541 0001065  81.2669 278.8444 15.08865668 32936,6917.802,95.436,540.404,538.93,0.0
53790.0,STARLINK-4734,PAYLOAD,2023-04-15 21:07:52,15.08845479,0.0001078,53.2162,347.1831,92.6788,267.4327,0.00080554,0.00012557,0.0,0 STARLINK-4734,1 53790U 22111T   23105.88046584  .00012557  00000-0  80554-3 0  9990,2 53790  53.2162 347.1831 0001078  92.6788 267.4327 15.08845479 33859,6917.864,95.437,540.474,538.983,0.0
53790.0,STARLINK-4734,PAYLOAD,2023-04-15 22:43:15,15.08849912,9.53e-05,53.2152,346.8846,96.1391,263.9709,0.00063268,9.798e-05,0.0,0 STARLINK-4734,1 53790U 22111T   23105.94670500  .00009798  00000-0  63268-3 0  9994,2 53790  53.2152 346.8846 0000953  96.1391 263.9709 15.08849912 33053,6917.85,95.437,540.374,539.056,0.0
53790.0,STARLINK-4734,PAYLOAD,2023-04-16 19:23:16,15.08836016,0.0001053,53.2168,343.0203,99.061,261.0501,0.00063081,9.765e-05,0.0,0 STARLINK-4734,1 53790U 22111T   23106.80783149  .00009765  00000-0  63081-3 0  9991,2 53790  53.2168 343.0203 0001053  99.0610 261.0501 15.08836016 33188,6917.893,95.438,540.486,539.029,0.0
53790.0,STARLINK-4734,PAYLOAD,2023-04-16 20:58:39,15.08834488,0.0001104,53.2169,342.723,99.6303,260.4813,0.00057644,8.897e-05,0.0,0 STARLINK-4734,1 53790U 22111T   23106.87407197  .00008897  00000-0  57644-3 0  9997,2 53790  53.2169 342.7230 0001104  99.6303 260.4813 15.08834488 34009,6917.897,95.438,540.526,538.999,0.0
53790.0,STARLINK-4734,PAYLOAD,2023-04-17 14:27:54,15.08835092,0.0001015,53.2162,339.4516,83.7509,276.3599,0.00016157,2.284e-05,0.0,0 STARLINK-4734,1 53790U 22111T   23107.60271453  .00002284  00000-0  16157-3 0  9991,2 53790  53.2162 339.4516 0001015  83.7509 276.3599 15.08835092 34116,6917.895,95.438,540.463,539.058,0.0
53790.0,STARLINK-4734,PAYLOAD,2023-04-17 19:14:03,15.08838882,0.0001016,53.216,338.5595,89.0958,271.015,0.00014959,2.094e-05,0.0,0 STARLINK-4734,1 53790U 22111T   23107.80143362  .00002094  00000-0  14959-3 0  9997,2 53790  53.2160 338.5595 0001016  89.0958 271.0150 15.08838882 33337,6917.884,95.438,540.452,539.046,0.0
53790.0,STARLINK-4734,PAYLOAD,2023-04-17 20:49:26,15.08840393,0.0001012,53.2159,338.2622,88.8025,271.3083,0.00017627,2.519e-05,0.0,0 STARLINK-4734,1 53790U 22111T   23107.86767309  .00002519  00000-0  17627-3 0  9993,2 53790  53.2159 338.2622 0001012  88.8025 271.3083 15.08840393 34150,6917.879,95.438,540.444,539.044,0.0
53790.0,STARLINK-4734,PAYLOAD,2023-04-18 00:00:13,15.08845476,0.0001022,53.2161,337.6674,87.1292,272.9817,0.00025557,3.783e-05,0.0,0 STARLINK-4734,1 53790U 22111T   23108.00015115  .00003783  00000-0  25557-3 0  9996,2 53790  53.2161 337.6674 0001022  87.1292 272.9817 15.08845476 34173,6917.864,95.437,540.436,539.022,0.0
53790.0,STARLINK-4734,PAYLOAD,2023-04-18 23:51:00,15.08847711,0.0001059,53.2159,333.2064,115.7318,244.3784,0.00024299,3.582e-05,0.0,0 STARLINK-4734,1 53790U 22111T   23108.99375054  .00003582  00000-0  24299-3 0  9994,2 53790  53.2159 333.2064 0001059 115.7318 244.3784 15.08847711 34329,6917.857,95.437,540.454,538.989,0.0
53790.0,STARLINK-4734,PAYLOAD,2023-04-20 01:17:10,15.08851387,0.0001169,53.2157,328.4477,77.6297,282.4826,0.00027964,4.167e-05,0.0,0 STARLINK-4734,1 53790U 22111T   23110.05359008  .00004167  00000-0  27964-3 0  9997,2 53790  53.2157 328.4477 0001169  77.6297 282.4826 15.08851387 34486,6917.846,95.437,540.519,538.902,0.0
53790.0,STARLINK-4734,PAYLOAD,2023-04-20 20:21:47,15.08841917,8.48e-05,53.2154,324.8769,100.6679,259.4409,5.1608e-05,5.34e-06,0.0,0 STARLINK-4734,1 53790U 22111T   23110.84847141  .00000534  00000-0  51608-4 0  9991,2 53790  53.2154 324.8769 0000848 100.6679 259.4409 15.08841917 33793,6917.875,95.437,540.326,539.153,0.0
53790.0,STARLINK-4734,PAYLOAD,2023-04-21 13:51:02,15.08842339,0.0001147,53.2146,321.6098,80.7477,279.3644,7.0515e-05,8.35e-06,0.0,0 STARLINK-4734,1 53790U 22111T   23111.57711319  .00000835  00000-0  70515-4 0  9991,2 53790  53.2146 321.6098 0001147  80.7477 279.3644 15.08842339 34715,6917.873,95.437,540.532,538.945,0.0
53790.0,STARLINK-4734,PAYLOAD,2023-04-21 20:12:35,15.08844109,0.0001133,53.2145,320.4211,78.8635,281.2485,0.00013723,1.897e-05,0.0,0 STARLINK-4734,1 53790U 22111T   23111.84207276  .00001897  00000-0  13723-3 0  9999,2 53790  53.2145 320.4211 0001133  78.8635 281.2485 15.08844109 34753,6917.868,95.437,540.517,538.949,0.0
53790.0,STARLINK-4734,PAYLOAD,2023-04-21 23:23:21,15.08845329,0.0001177,53.2143,319.8257,79.4951,280.6174,0.00016899,2.403e-05,0.0,0 STARLINK-4734,1 53790U 22111T   23111.97455234  .00002403  00000-0  16899-3 0  9993,2 53790  53.2143 319.8257 0001177  79.4951 280.6174 15.08845329 33964,6917.864,95.437,540.543,538.915,0.0
53790.0,STARLINK-4734,PAYLOAD,2023-04-22 13:41:49,15.08841068,9.55e-05,53.2132,317.1478,78.5968,281.5131,0.00016623,2.359e-05,0.0,0 STARLINK-4734,1 53790U 22111T   23112.57071445  .00002359  00000-0  16623-3 0  9993,2 53790  53.2132 317.1478 0000955  78.5968 281.5131 15.08841068 34868,6917.877,95.437,540.403,539.081,0.0
53790.0,STARLINK-4734,PAYLOAD,2023-04-22 20:03:22,15.08842745,9.71e-05,53.214,315.9591,65.4711,294.6382,0.0001177,1.586e-05,0.0,0 STARLINK-4734,1 53790U 22111T   23112.83567379  .00001586  00000-0  11770-3 0  9997,2 53790  53.2140 315.9591 0000971  65.4711 294.6382 15.08842745 34909,6917.872,95.437,540.409,539.065,0.0
53790.0,STARLINK-4734,PAYLOAD,2023-04-23 13:32:37,15.08838946,0.0001056,53.2144,312.687,78.4639,281.6472,0.00012337,1.676e-05,0.0,0 STARLINK-4734,1 53790U 22111T   23113.56431801  .00001676  00000-0  12337-3 0  9998,2 53790  53.2144 312.6870 0001056  78.4639 281.6472 15.08838946 34202,6917.884,95.438,540.479,539.018,0.0
53790.0,STARLINK-4734,PAYLOAD,2023-04-24 13:23:23,15.08860889,0.0001063,53.2148,308.2264,77.6792,282.432,0.00039371,5.987e-05,0.0,0 STARLINK-4734,1 53790U 22111T   23114.55790537  .00005987  00000-0  39371-3 0  9998,2 53790  53.2148 308.2264 0001063  77.6792 282.4320 15.08860889 34351,6917.817,95.436,540.417,538.946,0.0
53790.0,STARLINK-4734,PAYLOAD,2023-04-25 13:14:11,15.08796034,0.0001444,53.2163,303.767,116.1216,243.9925,-0.0008846,-0.00014322,0.0,0 STARLINK-4734,1 53790U 22111T   23115.55152652 -.00014322  00000-0 -88460-3 0  9997,2 53790  53.2163 303.7670 0001444 116.1216 243.9925 15.08796034 35312,6918.015,95.44,540.879,538.881,0.0
53790.0,STARLINK-4734,PAYLOAD,2023-04-26 05:08:04,15.08817679,0.0001062,53.2147,300.7904,104.5746,255.5364,-8.027e-05,-1.564e-05,0.0,0 STARLINK-4734,1 53790U 22111T   23116.21393858 -.00001564  00000-0 -80270-4 0  9992,2 53790  53.2147 300.7904 0001062 104.5746 255.5364 15.08817679 35412,6917.949,95.439,540.548,539.079,0.0
53790.0,STARLINK-4734,PAYLOAD,2023-04-26 14:40:22,15.0883597,0.0001453,53.2171,299.0101,121.3202,238.7932,0.00026362,3.91e-05,0.0,0 STARLINK-4734,1 53790U 22111T   23116.61137356  .00003910  00000-0  26362-3 0  9991,2 53790  53.2171 299.0101 0001453 121.3202 238.7932 15.08835970 35470,6917.893,95.438,540.763,538.753,0.0
53790.0,STARLINK-4734,PAYLOAD,2023-04-27 04:58:51,15.08831531,9.67e-05,53.2163,296.3343,132.789,227.3183,0.00073031,0.00011351,0.0,0 STARLINK-4734,1 53790U 22111T   23117.20753788  .00011351  00000-0  73031-3 0  9993,2 53790  53.2163 296.3343 0000967 132.7890 227.3183 15.08831531 35568,6917.906,95.438,540.44,539.102,0.0
